var classLPT_1_1TLE =
[
    [ "argPerigee", "classLPT_1_1TLE.html#a757748ad7d048d45d3d7941cbaf0370d", null ],
    [ "bstar", "classLPT_1_1TLE.html#a15e4a7dd9890bc8fe546e1525b04da74", null ],
    [ "eccentricity", "classLPT_1_1TLE.html#a357e605e7e65c6a5a461df202a6e75ae", null ],
    [ "epochDay", "classLPT_1_1TLE.html#ab053a37b72ba4e08762902474070ced3", null ],
    [ "epochTAI", "classLPT_1_1TLE.html#a21ace6716969704b5115975df1609c6f", null ],
    [ "epochYear", "classLPT_1_1TLE.html#af8a6d76df0b96d5269fa55b045e1f5c2", null ],
    [ "inclination", "classLPT_1_1TLE.html#ada22cf24841cb112185aa35c82d1103b", null ],
    [ "meanAnomaly", "classLPT_1_1TLE.html#afa3396a9267697ac1655ec6bcc82542c", null ],
    [ "meanMotion", "classLPT_1_1TLE.html#a97683baf0ea5b7dbf6a7b2a285aea707", null ],
    [ "name", "classLPT_1_1TLE.html#a842234be22934cf9ccbdf10e061e6a65", null ],
    [ "prn", "classLPT_1_1TLE.html#aac45ac1019c8682c1a2b7529eac0ffba", null ],
    [ "raan", "classLPT_1_1TLE.html#a0c11355aeb833e2e0f33bc83d218e3c5", null ]
];